NORAD_CAT_ID,OBJECT_NAME,OBJECT_TYPE,EPOCH,MEAN_MOTION,ECCENTRICITY,INCLINATION,RA_OF_ASC_NODE,ARG_OF_PERICENTER,MEAN_ANOMALY,BSTAR,MEAN_MOTION_DOT,MEAN_MOTION_DDOT,TLE_LINE0,TLE_LINE1,TLE_LINE2,SEMIMAJOR_AXIS,PERIOD,APOGEE,PERIGEE,DECAYED
53740.0,STARLINK-4607,PAYLOAD,2024-01-20 15:09:31,15.08832724,0.0001371,53.2164,161.3383,91.6806,268.4343,-6.9754e-06,-3.99e-06,0.0,0 STARLINK-4607,1 53740U 22107AS  24020.63161851 -.00000399  00000-0 -69754-5 0  9999,2 53740  53.2164 161.3383 0001371  91.6806 268.4343 15.08832724 76989,6917.903,95.438,540.716,538.819,0.0
53740.0,STARLINK-4607,PAYLOAD,2024-01-20 16:44:54,15.08833043,0.0001363,53.2164,161.0413,86.9285,273.1863,-5.1505e-06,-3.7e-06,0.0,0 STARLINK-4607,1 53740U 22107AS  24020.69785869 -.00000370  00000-0 -51505-5 0  9990,2 53740  53.2164 161.0413 0001363  86.9285 273.1863 15.08833043 76210,6917.902,95.438,540.71,538.824,0.0
53740.0,STARLINK-4607,PAYLOAD,2024-01-21 13:24:55,15.08841064,0.0001264,53.216,157.1773,93.2452,266.8685,0.00013573,1.873e-05,0.0,0 STARLINK-4607,1 53740U 22107AS  24021.55896998  .00001873  00000-0  13573-3 0  9990,2 53740  53.2160 157.1773 0001264  93.2452 266.8685 15.08841064 76345,6917.877,95.437,540.617,538.868,0.0
53740.0,STARLINK-4607,PAYLOAD,2024-01-21 18:11:03,15.0885304,0.0001439,53.2169,156.2823,84.8054,275.3102,0.00023656,3.48e-05,0.0,0 STARLINK-4607,1 53740U 22107AS  24021.75768072  .00003480  00000-0  23656-3 0  9992,2 53740  53.2169 156.2823 0001439  84.8054 275.3102 15.08853040 76377,6917.841,95.437,540.701,538.71,0.0
53740.0,STARLINK-4607,PAYLOAD,2024-01-22 08:29:33,15.08836479,0.0001177,53.2163,153.608,102.4293,257.6831,4.96e-05,5.02e-06,0.0,0 STARLINK-4607,1 53740U 22107AS  24022.35385682  .00000502  00000-0  49600-4 0  9991,2 53740  53.2163 153.6080 0001177 102.4293 257.6831 15.08836479 76467,6917.891,95.438,540.57,538.942,0.0
53740.0,STARLINK-4607,PAYLOAD,2024-01-22 14:51:05,15.08840631,0.0001367,53.2158,152.4204,83.7906,276.3242,0.00012533,1.707e-05,0.0,0 STARLINK-4607,1 53740U 22107AS  24022.61881440  .00001707  00000-0  12533-3 0  9995,2 53740  53.2158 152.4204 0001367  83.7906 276.3242 15.08840631 77289,6917.878,95.438,540.689,538.798,0.0
53740.0,STARLINK-4607,PAYLOAD,2024-01-23 11:31:05,15.08851745,0.0001337,53.2158,148.5543,89.3065,270.808,1.8252e-05,3e-08,0.0,0 STARLINK-4607,1 53740U 22107AS  24023.47992831  .00000003  00000-0  18252-4 0  9990,2 53740  53.2158 148.5543 0001337  89.3065 270.8080 15.08851745 76631,6917.844,95.437,540.634,538.785,0.0
53740.0,STARLINK-4607,PAYLOAD,2024-01-23 14:41:51,15.08856055,0.0001478,53.2161,147.96,75.3635,284.7521,3.6363e-05,2.91e-06,0.0,0 STARLINK-4607,1 53740U 22107AS  24023.61240571  .00000291  00000-0  36363-4 0  9995,2 53740  53.2161 147.9600 0001478  75.3635 284.7521 15.08856055 77438,6917.831,95.437,540.719,538.674,0.0
53740.0,STARLINK-4607,PAYLOAD,2024-01-24 11:21:53,15.08837729,0.0001277,53.2157,144.0931,81.4186,278.6951,2.28e-05,7.5e-07,0.0,0 STARLINK-4607,1 53740U 22107AS  24024.47353533  .00000075  00000-0  22800-4 0  9994,2 53740  53.2157 144.0931 0001277  81.4186 278.6951 15.08837729 76787,6917.887,95.438,540.636,538.869,0.0
53740.0,STARLINK-4607,PAYLOAD,2024-01-24 12:57:16,15.08837526,0.0001275,53.2156,143.7955,84.7284,275.3854,2.1874e-05,6e-07,0.0,0 STARLINK-4607,1 53740U 22107AS  24024.53977548  .00000060  00000-0  21874-4 0  9993,2 53740  53.2156 143.7955 0001275  84.7284 275.3854 15.08837526 77570,6917.888,95.438,540.635,538.871,0.0
53740.0,STARLINK-4607,PAYLOAD,2024-01-25 14:23:26,15.08845734,0.0001424,53.2174,139.0407,111.3344,248.78,1.7514e-05,-9e-08,0.0,0 STARLINK-4607,1 53740U 22107AS  24025.59961366 -.00000009  00000-0  17514-4 0  9991,2 53740  53.2174 139.0407 0001424 111.3344 248.7800 15.08845734 77733,6917.863,95.437,540.713,538.743,0.0
53740.0,STARLINK-4607,PAYLOAD,2024-01-26 11:03:27,15.0883906,0.0001453,53.2177,135.1752,105.9099,254.2053,0.000167,2.371e-05,0.0,0 STARLINK-4607,1 53740U 22107AS  24026.46073718  .00002371  00000-0  16700-3 0  9991,2 53740  53.2177 135.1752 0001453 105.9099 254.2053 15.08839060 77089,6917.883,95.438,540.753,538.743,0.0
53740.0,STARLINK-4607,PAYLOAD,2024-01-26 12:38:50,15.0884026,0.0001406,53.2171,134.8753,99.852,260.2631,0.00017771,2.541e-05,0.0,0 STARLINK-4607,1 53740U 22107AS  24026.52697619  .00002541  00000-0  17771-3 0  9998,2 53740  53.2171 134.8753 0001406  99.8520 260.2631 15.08840260 77878,6917.88,95.438,540.717,538.772,0.0
53740.0,STARLINK-4607,PAYLOAD,2024-01-27 12:29:38,15.0883967,0.0001361,53.2168,130.4156,90.7638,269.351,7.1429e-05,8.49e-06,0.0,0 STARLINK-4607,1 53740U 22107AS  24027.52058175  .00000849  00000-0  71429-4 0  9997,2 53740  53.2168 130.4156 0001361  90.7638 269.3510 15.08839670 77243,6917.881,95.438,540.688,538.805,0.0
53740.0,STARLINK-4607,PAYLOAD,2024-01-27 14:05:01,15.08840638,0.0001358,53.2166,130.117,77.7992,282.3152,7.0978e-05,8.42e-06,0.0,0 STARLINK-4607,1 53740U 22107AS  24027.58682135  .00000842  00000-0  70978-4 0  9993,2 53740  53.2166 130.1170 0001358  77.7992 282.3152 15.08840638 78039,6917.878,95.438,540.683,538.804,0.0
53740.0,STARLINK-4607,PAYLOAD,2024-01-28 13:55:49,15.08792762,0.000198,53.2178,125.657,65.1936,294.9262,0.00076405,0.00011877,0.0,0 STARLINK-4607,1 53740U 22107AS  24028.58043600  .00011877  00000-0  76405-3 0  9992,2 53740  53.2178 125.6570 0001980  65.1936 294.9262 15.08792762 78186,6918.025,95.441,541.26,538.52,0.0
53740.0,STARLINK-4607,PAYLOAD,2024-01-29 12:11:12,15.08845388,0.0001891,53.2177,121.4981,59.6516,300.4663,0.00016019,2.263e-05,0.0,0 STARLINK-4607,1 53740U 22107AS  24029.50777953  .00002263  00000-0  16019-3 0  9994,2 53740  53.2177 121.4981 0001891  59.6516 300.4663 15.08845388 77548,6917.864,95.437,541.037,538.421,0.0
53740.0,STARLINK-4607,PAYLOAD,2024-01-30 12:01:59,15.08840369,0.0001933,53.2176,117.039,61.2958,298.8228,1.5046e-05,-4.9e-07,0.0,0 STARLINK-4607,1 53740U 22107AS  24030.50138682 -.00000049  00000-0  15046-4 0  9997,2 53740  53.2176 117.0390 0001933  61.2958 298.8228 15.08840369 77695,6917.879,95.438,541.081,538.407,0.0
53740.0,STARLINK-4607,PAYLOAD,2024-01-31 11:52:46,15.08846296,0.0001518,53.2177,112.5733,88.6147,271.502,-1.1181e-05,-4.66e-06,0.0,0 STARLINK-4607,1 53740U 22107AS  24031.49498039 -.00000466  00000-0 -11181-4 0  9991,2 53740  53.2177 112.5733 0001518  88.6147 271.5020 15.08846296 78626,6917.861,95.437,540.776,538.676,0.0
53740.0,STARLINK-4607,PAYLOAD,2024-01-31 15:03:32,15.08851598,0.0001593,53.2179,111.976,96.3635,263.7538,-1.9358e-05,-5.96e-06,0.0,0 STARLINK-4607,1 53740U 22107AS  24031.62745602 -.00000596  00000-0 -19358-4 0  9995,2 53740  53.2179 111.9760 0001593  96.3635 263.7538 15.08851598 77865,6917.845,95.437,540.812,538.608,0.0
53740.0,STARLINK-4607,PAYLOAD,2024-02-01 11:43:33,15.08837343,0.0001479,53.2177,108.1067,95.7477,264.3684,5.3458e-05,5.63e-06,0.0,0 STARLINK-4607,1 53740U 22107AS  24032.48858348  .00000563  00000-0  53458-4 0  9993,2 53740  53.2177 108.1067 0001479  95.7477 264.3684 15.08837343 77996,6917.889,95.438,540.777,538.73,0.0
53740.0,STARLINK-4607,PAYLOAD,2024-02-02 09:58:57,15.08844181,0.000145,53.217,103.9489,95.4516,264.6641,3.6929e-05,3e-06,0.0,0 STARLINK-4607,1 53740U 22107AS  24033.41594118  .00000300  00000-0  36929-4 0  9992,2 53740  53.2170 103.9489 0001450  95.4516 264.6641 15.08844181 78917,6917.868,95.437,540.736,538.73,0.0
53740.0,STARLINK-4607,PAYLOAD,2024-02-02 14:45:06,15.08846885,0.0001659,53.2171,103.0541,114.9277,245.1888,3.5744e-05,2.81e-06,0.0,0 STARLINK-4607,1 53740U 22107AS  24033.61465810  .00000281  00000-0  35744-4 0  9992,2 53740  53.2171 103.0541 0001659 114.9277 245.1888 15.08846885 78167,6917.859,95.437,540.872,538.577,0.0
53740.0,STARLINK-4607,PAYLOAD,2024-02-03 11:25:08,15.08835059,0.0001433,53.2165,99.1852,79.7902,280.3252,2.1433e-05,5.3e-07,0.0,0 STARLINK-4607,1 53740U 22107AS  24034.47578935  .00000053  00000-0  21433-4 0  9997,2 53740  53.2165  99.1852 0001433  79.7902 280.3252 15.08835059 79071,6917.895,95.438,540.752,538.769,0.0
53740.0,STARLINK-4607,PAYLOAD,2024-02-04 12:51:17,15.08829556,0.0001618,53.2173,94.4281,92.0108,268.1069,0.00037516,5.686e-05,0.0,0 STARLINK-4607,1 53740U 22107AS  24035.53562455  .00005686  00000-0  37516-3 0  9990,2 53740  53.2173  94.4281 0001618  92.0108 268.1069 15.08829556 79238,6917.912,95.438,540.897,538.658,0.0
53740.0,STARLINK-4607,PAYLOAD,2024-02-05 11:06:42,15.08840361,0.0001567,53.2173,90.2714,96.5687,263.5484,9.401e-05,1.208e-05,0.0,0 STARLINK-4607,1 53740U 22107AS  24036.46298695  .00001208  00000-0  94010-4 0  9994,2 53740  53.2173  90.2714 0001567  96.5687 263.5484 15.08840361 79379,6917.879,95.438,540.828,538.66,0.0
53740.0,STARLINK-4607,PAYLOAD,2024-02-06 03:00:33,15.08841341,0.0001695,53.2172,87.2997,79.7745,280.3438,3.0289e-06,-2.4e-06,0.0,0 STARLINK-4607,1 53740U 22107AS  24037.12539184 -.00000240  00000-0  30289-5 0  9994,2 53740  53.2172  87.2997 0001695  79.7745 280.3438 15.08841341 78696,6917.876,95.437,540.914,538.569,0.0
53740.0,STARLINK-4607,PAYLOAD,2024-02-06 10:57:29,15.08843721,0.0001751,53.2173,85.8127,75.8697,284.249,1.7715e-05,-6e-08,0.0,0 STARLINK-4607,1 53740U 22107AS  24037.45659037 -.00000006  00000-0  17715-4 0  9998,2 53740  53.2173  85.8127 0001751  75.8697 284.2490 15.08843721 79520,6917.869,95.437,540.945,538.523,0.0
53740.0,STARLINK-4607,PAYLOAD,2024-02-07 12:23:38,15.08849373,0.0001554,53.2159,81.0515,99.133,260.9838,0.00012385,1.684e-05,0.0,0 STARLINK-4607,1 53740U 22107AS  24038.51642146  .00001684  00000-0  12385-3 0  9998,2 53740  53.2159  81.0515 0001554  99.1330 260.9838 15.08849373 78904,6917.852,95.437,540.792,538.642,0.0
53740.0,STARLINK-4607,PAYLOAD,2024-02-07 20:20:35,15.08838929,0.0001558,53.2168,79.5658,94.7397,265.3773,8.0486e-05,9.93e-06,0.0,0 STARLINK-4607,1 53740U 22107AS  24038.84762930  .00000993  00000-0  80486-4 0  9998,2 53740  53.2168  79.5658 0001558  94.7397 265.3773 15.08838929 79736,6917.884,95.438,540.826,538.671,0.0
